[{"OBJECT_NAME":"STARLINK-3558","OBJECT_ID":"2022-029AH","EPOCH":"2026-03-09T06:06:46.734912","MEAN_MOTION":15.08824172,"ECCENTRICITY":0.00013971,"INCLINATION":53.2184,"RA_OF_ASC_NODE":81.0812,"ARG_OF_PERICENTER":61.7414,"MEAN_ANOMALY":298.3719,"EPHEMERIS_TYPE":0,"CLASSIFICATION_TYPE":"U","NORAD_CAT_ID":52119,"ELEMENT_SET_NO":999,"REV_AT_EPOCH":22072,"BSTAR":-7.4606671e-5,"MEAN_MOTION_DOT":-1.475e-5,"MEAN_MOTION_DDOT":0},{"OBJECT_NAME":"DELTA 1 DEB","OBJECT_ID":"1978-026BX","EPOCH":"2026-03-09T21:34:36.806304","MEAN_MOTION":15.0275865,"ECCENTRICITY":0.00371244,"INCLINATION":98.0194,"RA_OF_ASC_NODE":65.5332,"ARG_OF_PERICENTER":51.7385,"MEAN_ANOMALY":308.7169,"EPHEMERIS_TYPE":0,"CLASSIFICATION_TYPE":"U","NORAD_CAT_ID":12230,"ELEMENT_SET_NO":999,"REV_AT_EPOCH":36609,"BSTAR":0.0014350783,"MEAN_MOTION_DOT":0.00019449,"MEAN_MOTION_DDOT":0}]
